[{"OBJECT_NAME":"STARLINK-5312","OBJECT_ID":"2023-010AU","EPOCH":"2026-03-09T23:36:49.932864","MEAN_MOTION":14.98338959,"ECCENTRICITY":0.00028058,"INCLINATION":70.0011,"RA_OF_ASC_NODE":3.8251,"ARG_OF_PERICENTER":256.2207,"MEAN_ANOMALY":103.864,"EPHEMERIS_TYPE":0,"CLASSIFICATION_TYPE":"U","NORAD_CAT_ID":55311,"ELEMENT_SET_NO":999,"REV_AT_EPOCH":17468,"BSTAR":-6.916796e-6,"MEAN_MOTION_DOT":-1.76e-6,"MEAN_MOTION_DDOT":0},{"OBJECT_NAME":"CENTAURI-8","OBJECT_ID":"2025-009DK","EPOCH":"2026-03-09T17:25:58.526112","MEAN_MOTION":14.9722833,"ECCENTRICITY":0.00030201,"INCLINATION":97.7096,"RA_OF_ASC_NODE":150.1876,"ARG_OF_PERICENTER":109.5881,"MEAN_ANOMALY":250.5667,"EPHEMERIS_TYPE":0,"CLASSIFICATION_TYPE":"U","NORAD_CAT_ID":62714,"ELEMENT_SET_NO":999,"REV_AT_EPOCH":6259,"BSTAR":0.00038891127,"MEAN_MOTION_DOT":4.445e-5,"MEAN_MOTION_DDOT":0}]
